OPS 6582 (TRANSIT 5B-5) 
1 00965U 64083D   23026.50060373  .00000082  00000+0  10202-3 0  9995
2 00965  90.0292 196.1541 0039442 298.2430 124.9592 13.56802675875769
OSCAR 7 (AO-7)          
1 07530U 74089B   23027.18061553 -.00000032  00000+0  91134-4 0  9993
2 07530 101.9338  12.9816 0012169 334.6157  89.3688 12.53660540205749
UOSAT 2 (UO-11)         
1 14781U 84021B   23026.92204680  .00002259  00000+0  27604-3 0  9999
2 14781  97.6420   9.5228 0006989 315.1933  44.8716 14.84206035 94189
NOAA 9                  
1 15427U 84123A   23026.91302697  .00000266  00000+0  15722-3 0  9990
2 15427  99.0747   8.1343 0013925 251.4885 162.6455 14.16278124968478
LUSAT (LO-19)           
1 20442U 90005G   23027.49791416  .00000284  00000+0  12008-3 0  9998
2 20442  98.8263   1.1516 0010869 228.0204 132.0054 14.33152097725257
ITAMSAT (IO-26)         
1 22826U 93061D   23026.58546038  .00000206  00000+0  96445-4 0  9990
2 22826  98.8570  66.9193 0009985 106.1478 254.0803 14.30589202530319
RADIO ROSTO (RS-15)     
1 23439U 94085A   23026.54119606 -.00000039  00000+0  10000-3 0  9998
2 23439  64.8141 144.7856 0166254 234.5440 123.9866 11.27573318156643
JAS-2 (FO-29)           
1 24278U 96046B   23027.25808395 -.00000009  00000+0  24348-4 0  9996
2 24278  98.5164  25.1051 0351221  62.6132 301.0285 13.53129323306129
NOAA 15                 
1 25338U 98030A   23027.57200637  .00000220  00000+0  10998-3 0  9998
2 25338  98.6228  58.9238 0010427  10.1814 349.9575 14.26231474285216
TECHSAT 1B (GO-32)      
1 25397U 98043D   23026.83368512  .00000187  00000+0  10161-3 0  9996
2 25397  98.8498 343.2276 0001557 141.3326 218.7964 14.23811298275436
ISS (ZARYA)             
1 25544U 98067A   23027.55332176  .00022744  00000+0  40215-3 0  9999
2 25544  51.6445 305.1233 0004855 286.0842  63.8819 15.50217736379973
ORSTED                  
1 25635U 99008B   23027.50208344  .00001452  00000+0  34898-3 0  9993
2 25635  96.4429 204.7492 0137495 185.2135 174.7641 14.48726095262982
PHASE 3D (AO-40)        
1 26609U 00072B   23025.69795485 -.00000277  00000+0  00000+0 0  9992
2 26609   5.5413 212.0128 7957211 113.9568 342.2400  1.25588939101944
PCSAT (NO-44)           
1 26931U 01043C   23026.58681133  .00000312  00000+0  15054-3 0  9990
2 26931  67.0495 202.4169 0005640 281.1178  78.9290 14.30804110113485
SAUDISAT 1C (SO-50)     
1 27607U 02058C   23026.31883638  .00002302  00000+0  33192-3 0  9997
2 27607  64.5573 339.6811 0079177 252.2680 106.9770 14.76664577 81272
CUTE-1 (CO-55)          
1 27844U 03031E   23026.60832880  .00000549  00000+0  26504-3 0  9997
2 27844  98.6797  35.9409 0010016 169.9016 190.2365 14.22603858 15600
CUBESAT XI-IV (CO-57)   
1 27848U 03031J   23027.48638567  .00000387  00000+0  19413-3 0  9995
2 27848  98.6837  37.2701 0009646 181.8345 178.2799 14.22139857 15558
MOZHAYETS 4 (RS-22)     
1 27939U 03042A   23027.37638804  .00001995  00000+0  35803-3 0  9997
2 27939  98.2180 173.5223 0012124 217.2104 142.8278 14.67805371 33886
INMARSAT 4-F1           
1 28628U 05009A   23026.83313230 -.00000265  00000+0  00000+0 0  9998
2 28628   3.7864  37.3019 0002808 270.1579 261.7964  1.00272039 65255
NOAA 18                 
1 28654U 05018A   23027.42651586  .00000262  00000+0  16470-3 0  9990
2 28654  98.9256 102.4272 0014992  61.0415 299.2257 14.12849425911698
CUBESAT XI-V            
1 28895U 05043F   23026.85861765  .00002552  00000+0  48519-3 0  9996
2 28895  98.1314 160.2615 0016876 154.4961 205.7078 14.64912627920348
METOP-A                 
1 29499U 06044A   23027.13269000  .00001972  00000+0  26607-3 0  9994
2 29499  98.4219  83.5786 0196735  26.6263   0.5591 14.67836188846337
CARTOSAT-2 (IRS-P7)     
1 29710U 07001B   23026.94148435  .00032388  00000+0  63332-3 0  9991
2 29710  97.8759 151.9242 0125992 349.2624  10.5933 15.39090498870484
CAPE-1                  
1 31130U 07012P   23026.79342214  .00003103  00000+0  65113-3 0  9998
2 31130  98.2940 331.1214 0093437 321.9722  37.4905 14.57681135837613
CARTOSAT-2A             
1 32783U 08021A   23027.33811323  .00001372  00000+0  19388-3 0  9996
2 32783  97.9364  89.9380 0012935 158.5783 201.5985 14.78685894796100
CUTE-1.7+APD II (CO-65) 
1 32785U 08021C   23027.45541184  .00004792  00000+0  49259-3 0  9995
2 32785  97.6887 356.7290 0011733 202.9177 157.1520 14.90747489799916
COMPASS-1               
1 32787U 08021E   23026.94783767  .00010302  00000+0  87304-3 0  9992
2 32787  97.5872   6.8771 0013731 113.8576 246.4087 14.98083272801534
AAUSAT-II               
1 32788U 08021F   23026.93143760  .00010789  00000+0  86781-3 0  9992
2 32788  97.5545   9.9534 0010376  96.1372 264.1034 15.00116839802004
DELFI-C3 (DO-64)        
1 32789U 08021G   23027.06154621  .00035663  00000+0  15770-2 0  9993
2 32789  97.3213  50.9924 0006315 259.3681 100.6844 15.21585596805928
SEEDS II (CO-66)        
1 32791U 08021J   23026.43937729  .00006392  00000+0  59823-3 0  9999
2 32791  97.6396   1.0277 0013065 158.9191 201.2571 14.94356702800557
YUBILEINY (RS-30)       
1 32953U 08025A   23027.44169400  .00000024  00000+0  10000-3 0  9998
2 32953  82.5028  44.6310 0020413 129.5563 230.7331 12.43118102666165
FENGYUN 3A              
1 32958U 08026A   23027.38308791  .00000221  00000+0  12662-3 0  9990
2 32958  98.5364 346.2291 0009823  95.1256 265.1042 14.18791623760084
PRISM (HITOMI)          
1 33493U 09002B   23026.94241989  .00011281  00000+0  84771-3 0  9994
2 33493  98.2523  31.9383 0018445 153.4898 206.7272 15.02638349762518
STARS (KUKAI)           
1 33498U 09002G   23026.71485158  .00003953  00000+0  51857-3 0  9998
2 33498  98.1486 287.2968 0009048 249.7424 110.2815 14.80868046754885
KKS-1 (KISEKI)          
1 33499U 09002H   23026.65377678  .00002095  00000+0  30834-3 0  9997
2 33499  98.1907 277.0652 0008179 329.3720  30.7010 14.76482421753605
NOAA 19                 
1 33591U 09005A   23027.59523820  .00000210  00000+0  13826-3 0  9998
2 33591  99.1216  71.1423 0012977 278.8295  81.1407 14.12675904720094
SWISSCUBE               
1 35932U 09051B   23027.11488129  .00001552  00000+0  35392-3 0  9992
2 35932  98.5408 253.9978 0008678  80.7021 279.5157 14.57253815708707
BEESAT-1                
1 35933U 09051C   23026.58972964  .00001439  00000+0  32915-3 0  9990
2 35933  98.5342 254.9190 0006877  92.6982 267.5003 14.57220720708660
ITUPSAT1                
1 35935U 09051E   23026.88259168  .00001251  00000+0  29329-3 0  9996
2 35935  98.5443 255.2125 0009157  96.1918 264.0322 14.56303862708426
XIWANG-1 (HOPE-1)       
1 36122U 09072B   23027.48068258  .00000004  00000+0  12467-3 0  9993
2 36122 100.2179 355.9232 0007400 181.7747 178.3341 13.16376851630390
CARTOSAT-2B             
1 36795U 10035A   23027.44337264  .00000899  00000+0  12974-3 0  9997
2 36795  97.9308  90.0358 0012306 238.0158 121.9873 14.78634995677166
TISAT 1                 
1 36799U 10035E   23027.49770231  .00006002  00000+0  56231-3 0  9997
2 36799  98.1558 251.6335 0013034  79.4589 280.8098 14.94380849681404
FENGYUN 3B              
1 37214U 10059A   23027.54917858  .00000161  00000+0  10820-3 0  9994
2 37214  99.0906  42.4874 0023179  83.3737 277.0067 14.14290383632638
JUGNU                   
1 37839U 11058B   23026.93842376  .00000583  00000+0  16789-3 0  9999
2 37839  19.9601 259.8643 0018923 101.3682 287.9019 14.12866574583892
SRMSAT                  
1 37841U 11058D   23027.05495125  .00000543  00000+0  15325-3 0  9993
2 37841  19.9735 343.2747 0011673 280.5300 158.0108 14.10822078583074
M-CUBED & EXP-1 PRIME   
1 37855U 11061F   23027.49692317  .00016840  00000+0  64592-3 0  9999
2 37855 101.7101 271.5189 0138354 108.4023 253.2295 15.18127568615628
HORYU-2                 
1 38340U 12025D   23027.45297556  .00003150  00000+0  44920-3 0  9995
2 38340  98.1778 114.0988 0010349 226.4217 133.6135 14.77462632575711
METOP-B                 
1 38771U 12049A   23027.46195785  .00000159  00000+0  92633-4 0  9992
2 38771  98.7003  89.0556 0001675  98.9090 324.0604 14.21504522537552
SARAL                   
1 39086U 13009A   23027.46269492  .00000184  00000+0  84602-4 0  9991
2 39086  98.5458 214.8078 0001083  35.5209 324.6047 14.32073853518548
AAUSAT 3                
1 39087U 13009B   23027.52325468  .00001357  00000+0  47693-3 0  9996
2 39087  98.3846 226.3263 0012091 322.3017  37.7300 14.36457091519748
STRAND-1                
1 39090U 13009E   23026.50995436  .00000563  00000+0  21076-3 0  9990
2 39090  98.3914 223.7155 0008514 333.5111  26.5639 14.35429312519412
BRITE-AUSTRIA           
1 39091U 13009F   23027.12717294  .00000330  00000+0  12994-3 0  9995
2 39091  98.3936 223.5213 0010005 337.8202  22.2550 14.35370730519522
UNIBRITE                
1 39092U 13009G   23027.51750502  .00000286  00000+0  11495-3 0  9993
2 39092  98.3972 223.7070 0008815 332.5546  27.5173 14.35242041519538
SOMP                    
1 39134U 13015E   23027.09420655  .00047592  00000+0  12180-2 0  9995
2 39134  64.8581  43.5774 0023899 254.4371 105.4127 15.38848224541501
BEESAT-3                
1 39135U 13015F   23026.59088532  .00032092  00000+0  10529-2 0  9998
2 39135  64.8628  87.8919 0030726 253.1299 106.6464 15.31014481540608
BEESAT-2                
1 39136U 13015G   23026.68401148  .00028966  00000+0  10058-2 0  9993
2 39136  64.8718  97.3370 0026346 289.7875  70.0416 15.29341955540443
NEE-01 PEGASO           
1 39151U 13018B   23027.24299013  .00003235  00000+0  41639-3 0  9994
2 39151  97.9992 137.3917 0015395 248.5701 111.3870 14.81728851526815
CUBEBUG-1 (CAPITAN BETO)
1 39153U 13018D   23027.53411090  .00003974  00000+0  49973-3 0  9998
2 39153  98.0250 143.0276 0015296 241.6581 118.3089 14.82581443527026
ESTCUBE 1               
1 39161U 13021C   23027.15523460  .00002984  00000+0  46586-3 0  9991
2 39161  97.8887 103.4021 0010357  64.4195 295.8039 14.73553859522404
